<xml>
<item>
<COMMENT>GENERATED VIA SPACETRACK.ORG API</COMMENT>
<ORIGINATOR>18 SPCS</ORIGINATOR>
<NORAD_CAT_ID>55938</NORAD_CAT_ID>
<OBJECT_NAME>STARLINK-5909</OBJECT_NAME>
<OBJECT_TYPE>PAYLOAD</OBJECT_TYPE>
<CLASSIFICATION_TYPE>U</CLASSIFICATION_TYPE>
<INTLDES>23037AA</INTLDES>
<EPOCH>2023-10-15 11:47:30</EPOCH>
<EPOCH_MICROSECONDS>602688</EPOCH_MICROSECONDS>
<MEAN_MOTION>14.9833861</MEAN_MOTION>
<ECCENTRICITY>0.0002919</ECCENTRICITY>
<INCLINATION>70</INCLINATION>
<RA_OF_ASC_NODE>333.6841</RA_OF_ASC_NODE>
<ARG_OF_PERICENTER>270.6049</ARG_OF_PERICENTER>
<MEAN_ANOMALY>89.4776</MEAN_ANOMALY>
<EPHEMERIS_TYPE>0</EPHEMERIS_TYPE>
<ELEMENT_SET_NO>999</ELEMENT_SET_NO>
<REV_AT_EPOCH>3307</REV_AT_EPOCH>
<BSTAR>0.000085002</BSTAR>
<MEAN_MOTION_DOT>0.00000922</MEAN_MOTION_DOT>
<MEAN_MOTION_DDOT>0</MEAN_MOTION_DDOT>
<FILE>4034702</FILE>
<TLE_LINE0>0 STARLINK-5909</TLE_LINE0>
<TLE_LINE1>1 55938U 23037AA 23288.49132642 .00000922 00000-0 85002-4 0 9991</TLE_LINE1>
<TLE_LINE2>2 55938 70.0000 333.6841 0002919 270.6049 89.4776 14.98338610 33073</TLE_LINE2>
<OBJECT_ID>2023-037AA</OBJECT_ID>
<OBJECT_NUMBER>55938</OBJECT_NUMBER>
<SEMIMAJOR_AXIS>6950.166</SEMIMAJOR_AXIS>
<PERIOD>96.106</PERIOD>
<APOGEE>574.060</APOGEE>
<PERIGEE>570.003</PERIGEE>
<DECAYED>0</DECAYED>
</item>
<item>
<COMMENT>GENERATED VIA SPACETRACK.ORG API</COMMENT>
<ORIGINATOR>18 SPCS</ORIGINATOR>
<NORAD_CAT_ID>49161</NORAD_CAT_ID>
<OBJECT_NAME>STARLINK-3080</OBJECT_NAME>
<OBJECT_TYPE>PAYLOAD</OBJECT_TYPE>
<CLASSIFICATION_TYPE>U</CLASSIFICATION_TYPE>
<INTLDES>21082AH</INTLDES>
<EPOCH>2023-10-15 12:32:44</EPOCH>
<EPOCH_MICROSECONDS>800800</EPOCH_MICROSECONDS>
<MEAN_MOTION>14.9832028</MEAN_MOTION>
<ECCENTRICITY>0.0002773</ECCENTRICITY>
<INCLINATION>70</INCLINATION>
<RA_OF_ASC_NODE>343.568</RA_OF_ASC_NODE>
<ARG_OF_PERICENTER>265.0377</ARG_OF_PERICENTER>
<MEAN_ANOMALY>95.0466</MEAN_ANOMALY>
<EPHEMERIS_TYPE>0</EPHEMERIS_TYPE>
<ELEMENT_SET_NO>999</ELEMENT_SET_NO>
<REV_AT_EPOCH>11581</REV_AT_EPOCH>
<BSTAR>-0.00015463</BSTAR>
<MEAN_MOTION_DOT>-0.00001937</MEAN_MOTION_DOT>
<MEAN_MOTION_DDOT>0</MEAN_MOTION_DDOT>
<FILE>4034574</FILE>
<TLE_LINE0>0 STARLINK-3080</TLE_LINE0>
<TLE_LINE1>1 49161U 21082AH 23288.52274075 -.00001937 00000-0 -15463-3 0 9993</TLE_LINE1>
<TLE_LINE2>2 49161 70.0000 343.5680 0002773 265.0377 95.0466 14.98320280115811</TLE_LINE2>
<OBJECT_ID>2021-082AH</OBJECT_ID>
<OBJECT_NUMBER>49161</OBJECT_NUMBER>
<SEMIMAJOR_AXIS>6950.223</SEMIMAJOR_AXIS>
<PERIOD>96.108</PERIOD>
<APOGEE>574.015</APOGEE>
<PERIGEE>570.161</PERIGEE>
<DECAYED>0</DECAYED>
</item>
<item>
<COMMENT>GENERATED VIA SPACETRACK.ORG API</COMMENT>
<ORIGINATOR>18 SPCS</ORIGINATOR>
<NORAD_CAT_ID>55298</NORAD_CAT_ID>
<OBJECT_NAME>STARLINK-5272</OBJECT_NAME>
<OBJECT_TYPE>PAYLOAD</OBJECT_TYPE>
<CLASSIFICATION_TYPE>U</CLASSIFICATION_TYPE>
<INTLDES>23010AF</INTLDES>
<EPOCH>2023-10-15 12:55:15</EPOCH>
<EPOCH_MICROSECONDS>208608</EPOCH_MICROSECONDS>
<MEAN_MOTION>14.98323402</MEAN_MOTION>
<ECCENTRICITY>0.0002608</ECCENTRICITY>
<INCLINATION>70</INCLINATION>
<RA_OF_ASC_NODE>73.4044</RA_OF_ASC_NODE>
<ARG_OF_PERICENTER>265.9482</ARG_OF_PERICENTER>
<MEAN_ANOMALY>94.1379</MEAN_ANOMALY>
<EPHEMERIS_TYPE>0</EPHEMERIS_TYPE>
<ELEMENT_SET_NO>999</ELEMENT_SET_NO>
<REV_AT_EPOCH>4172</REV_AT_EPOCH>
<BSTAR>-0.000044473</BSTAR>
<MEAN_MOTION_DOT>-0.00000623</MEAN_MOTION_DOT>
<MEAN_MOTION_DDOT>0</MEAN_MOTION_DDOT>
<FILE>4034783</FILE>
<TLE_LINE0>0 STARLINK-5272</TLE_LINE0>
<TLE_LINE1>1 55298U 23010AF 23288.53837047 -.00000623 00000-0 -44473-4 0 9994</TLE_LINE1>
<TLE_LINE2>2 55298 70.0000 73.4044 0002608 265.9482 94.1379 14.98323402 41725</TLE_LINE2>
<OBJECT_ID>2023-010AF</OBJECT_ID>
<OBJECT_NUMBER>55298</OBJECT_NUMBER>
<SEMIMAJOR_AXIS>6950.213</SEMIMAJOR_AXIS>
<PERIOD>96.107</PERIOD>
<APOGEE>573.891</APOGEE>
<PERIGEE>570.266</PERIGEE>
<DECAYED>0</DECAYED>
</item>
<item>
<COMMENT>GENERATED VIA SPACETRACK.ORG API</COMMENT>
<ORIGINATOR>18 SPCS</ORIGINATOR>
<NORAD_CAT_ID>55641</NORAD_CAT_ID>
<OBJECT_NAME>STARLINK-5065</OBJECT_NAME>
<OBJECT_TYPE>PAYLOAD</OBJECT_TYPE>
<CLASSIFICATION_TYPE>U</CLASSIFICATION_TYPE>
<INTLDES>23021P</INTLDES>
<EPOCH>2023-10-15 13:10:11</EPOCH>
<EPOCH_MICROSECONDS>979264</EPOCH_MICROSECONDS>
<MEAN_MOTION>14.98328406</MEAN_MOTION>
<ECCENTRICITY>0.0003016</ECCENTRICITY>
<INCLINATION>70</INCLINATION>
<RA_OF_ASC_NODE>233.5274</RA_OF_ASC_NODE>
<ARG_OF_PERICENTER>265.4609</ARG_OF_PERICENTER>
<MEAN_ANOMALY>94.6206</MEAN_ANOMALY>
<EPHEMERIS_TYPE>0</EPHEMERIS_TYPE>
<ELEMENT_SET_NO>999</ELEMENT_SET_NO>
<REV_AT_EPOCH>3755</REV_AT_EPOCH>
<BSTAR>-0.000069607</BSTAR>
<MEAN_MOTION_DOT>-0.00000923</MEAN_MOTION_DOT>
<MEAN_MOTION_DDOT>0</MEAN_MOTION_DDOT>
<FILE>4034787</FILE>
<TLE_LINE0>0 STARLINK-5065</TLE_LINE0>
<TLE_LINE1>1 55641U 23021P 23288.54874976 -.00000923 00000-0 -69607-4 0 9990</TLE_LINE1>
<TLE_LINE2>2 55641 70.0000 233.5274 0003016 265.4609 94.6206 14.98328406 37550</TLE_LINE2>
<OBJECT_ID>2023-021P</OBJECT_ID>
<OBJECT_NUMBER>55641</OBJECT_NUMBER>
<SEMIMAJOR_AXIS>6950.198</SEMIMAJOR_AXIS>
<PERIOD>96.107</PERIOD>
<APOGEE>574.159</APOGEE>
<PERIGEE>569.967</PERIGEE>
<DECAYED>0</DECAYED>
</item>
<item>
<COMMENT>GENERATED VIA SPACETRACK.ORG API</COMMENT>
<ORIGINATOR>18 SPCS</ORIGINATOR>
<NORAD_CAT_ID>56788</NORAD_CAT_ID>
<OBJECT_NAME>STARLINK-6336</OBJECT_NAME>
<OBJECT_TYPE>PAYLOAD</OBJECT_TYPE>
<CLASSIFICATION_TYPE>U</CLASSIFICATION_TYPE>
<INTLDES>23078X</INTLDES>
<EPOCH>2023-10-15 13:11:16</EPOCH>
<EPOCH_MICROSECONDS>821600</EPOCH_MICROSECONDS>
<MEAN_MOTION>15.69909943</MEAN_MOTION>
<ECCENTRICITY>0.0003101</ECCENTRICITY>
<INCLINATION>70</INCLINATION>
<RA_OF_ASC_NODE>27.3435</RA_OF_ASC_NODE>
<ARG_OF_PERICENTER>272.1075</ARG_OF_PERICENTER>
<MEAN_ANOMALY>87.9765</MEAN_ANOMALY>
<EPHEMERIS_TYPE>0</EPHEMERIS_TYPE>
<ELEMENT_SET_NO>999</ELEMENT_SET_NO>
<REV_AT_EPOCH>2159</REV_AT_EPOCH>
<BSTAR>0.000050895</BSTAR>
<MEAN_MOTION_DOT>0.00005908</MEAN_MOTION_DOT>
<MEAN_MOTION_DDOT>0</MEAN_MOTION_DDOT>
<FILE>4034787</FILE>
<TLE_LINE0>0 STARLINK-6336</TLE_LINE0>
<TLE_LINE1>1 56788U 23078X 23288.54950025 .00005908 00000-0 50895-4 0 9990</TLE_LINE1>
<TLE_LINE2>2 56788 70.0000 27.3435 0003101 272.1075 87.9765 15.69909943 21590</TLE_LINE2>
<OBJECT_ID>2023-078X</OBJECT_ID>
<OBJECT_NUMBER>56788</OBJECT_NUMBER>
<SEMIMAJOR_AXIS>6737.292</SEMIMAJOR_AXIS>
<PERIOD>91.725</PERIOD>
<APOGEE>361.246</APOGEE>
<PERIGEE>357.067</PERIGEE>
<DECAYED>0</DECAYED>
</item>
<item>
<COMMENT>GENERATED VIA SPACETRACK.ORG API</COMMENT>
<ORIGINATOR>18 SPCS</ORIGINATOR>
<NORAD_CAT_ID>55938</NORAD_CAT_ID>
<OBJECT_NAME>STARLINK-5909</OBJECT_NAME>
<OBJECT_TYPE>PAYLOAD</OBJECT_TYPE>
<CLASSIFICATION_TYPE>U</CLASSIFICATION_TYPE>
<INTLDES>23037AA</INTLDES>
<EPOCH>2023-10-15 13:23:38</EPOCH>
<EPOCH_MICROSECONDS>590656</EPOCH_MICROSECONDS>
<MEAN_MOTION>14.98339315</MEAN_MOTION>
<ECCENTRICITY>0.000291</ECCENTRICITY>
<INCLINATION>70</INCLINATION>
<RA_OF_ASC_NODE>333.5155</RA_OF_ASC_NODE>
<ARG_OF_PERICENTER>270.9093</ARG_OF_PERICENTER>
<MEAN_ANOMALY>89.1733</MEAN_ANOMALY>
<EPHEMERIS_TYPE>0</EPHEMERIS_TYPE>
<ELEMENT_SET_NO>999</ELEMENT_SET_NO>
<REV_AT_EPOCH>3274</REV_AT_EPOCH>
<BSTAR>0.000092592</BSTAR>
<MEAN_MOTION_DOT>0.00001012</MEAN_MOTION_DOT>
<MEAN_MOTION_DDOT>0</MEAN_MOTION_DDOT>
<FILE>4034787</FILE>
<TLE_LINE0>0 STARLINK-5909</TLE_LINE0>
<TLE_LINE1>1 55938U 23037AA 23288.55808554 .00001012 00000-0 92592-4 0 9993</TLE_LINE1>
<TLE_LINE2>2 55938 70.0000 333.5155 0002910 270.9093 89.1733 14.98339315 32749</TLE_LINE2>
<OBJECT_ID>2023-037AA</OBJECT_ID>
<OBJECT_NUMBER>55938</OBJECT_NUMBER>
<SEMIMAJOR_AXIS>6950.164</SEMIMAJOR_AXIS>
<PERIOD>96.106</PERIOD>
<APOGEE>574.052</APOGEE>
<PERIGEE>570.007</PERIGEE>
<DECAYED>0</DECAYED>
</item>
<item>
<COMMENT>GENERATED VIA SPACETRACK.ORG API</COMMENT>
<ORIGINATOR>18 SPCS</ORIGINATOR>
<NORAD_CAT_ID>55293</NORAD_CAT_ID>
<OBJECT_NAME>STARLINK-5287</OBJECT_NAME>
<OBJECT_TYPE>PAYLOAD</OBJECT_TYPE>
<CLASSIFICATION_TYPE>U</CLASSIFICATION_TYPE>
<INTLDES>23010AA</INTLDES>
<EPOCH>2023-10-15 13:25:18</EPOCH>
<EPOCH_MICROSECONDS>164064</EPOCH_MICROSECONDS>
<MEAN_MOTION>14.98325561</MEAN_MOTION>
<ECCENTRICITY>0.0003177</ECCENTRICITY>
<INCLINATION>70</INCLINATION>
<RA_OF_ASC_NODE>73.4815</RA_OF_ASC_NODE>
<ARG_OF_PERICENTER>269.2497</ARG_OF_PERICENTER>
<MEAN_ANOMALY>90.8298</MEAN_ANOMALY>
<EPHEMERIS_TYPE>0</EPHEMERIS_TYPE>
<ELEMENT_SET_NO>999</ELEMENT_SET_NO>
<REV_AT_EPOCH>4203</REV_AT_EPOCH>
<BSTAR>-0.000038633</BSTAR>
<MEAN_MOTION_DOT>-0.00000554</MEAN_MOTION_DOT>
<MEAN_MOTION_DDOT>0</MEAN_MOTION_DDOT>
<FILE>4034787</FILE>
<TLE_LINE0>0 STARLINK-5287</TLE_LINE0>
<TLE_LINE1>1 55293U 23010AA 23288.55923801 -.00000554 00000-0 -38633-4 0 9999</TLE_LINE1>
<TLE_LINE2>2 55293 70.0000 73.4815 0003177 269.2497 90.8298 14.98325561 42037</TLE_LINE2>
<OBJECT_ID>2023-010AA</OBJECT_ID>
<OBJECT_NUMBER>55293</OBJECT_NUMBER>
<SEMIMAJOR_AXIS>6950.207</SEMIMAJOR_AXIS>
<PERIOD>96.107</PERIOD>
<APOGEE>574.280</APOGEE>
<PERIGEE>569.864</PERIGEE>
<DECAYED>0</DECAYED>
</item>

</xml>
